{"type":"FeatureCollection","features":[{"type":"Feature","properties":{"name":"elganoub"},"geometry":{"coordinates":[[[32.265237863697934,31.24411338917075],[32.26498384972223,31.243230052682392],[32.264328405737814,31.241507365775036],[32.263235999096594,31.240863944533316],[32.26109973721975,31.23951482124818],[32.258502236984015,31.23677500389354],[32.25813810143694,31.235861713783706],[32.257253014992415,31.234272971455738],[32.25887948710297,31.23317284178323],[32.25948637968108,31.232051941771644],[32.25989906663449,31.23255012119651],[32.260166099368774,31.23182360865792],[32.26053023491579,31.231595274991534],[32.26087009475967,31.231159363734278],[32.260554510619016,31.230785723912604],[32.259777688118476,31.23022526141031],[32.26208387991679,31.229913891916922],[32.26252084257342,31.228813711489707],[32.2639773847616,31.228460820715014],[32.265215445621976,31.228772194996267],[32.26550675405943,31.227879585978442],[32.26735170749788,31.227713518254617],[32.26947548960854,31.229777785771276],[32.27378766371925,31.226121711791876],[32.27579475629875,31.225591211067396],[32.276451622961076,31.22587206476281],[32.28898232122776,31.204097363749483],[32.28587623844004,31.203365801130005],[32.2810145436417,31.205290953771197],[32.27925893163112,31.205290953771197],[32.279341869385064,31.198345996292716],[32.28789485097525,31.19815346865839],[32.28879516482644,31.200425269782073],[32.30038451426725,31.200364362122613],[32.303063361086004,31.20051823596198],[32.30223072787348,31.22090028306691],[32.301608131727164,31.229494814486998],[32.30156366057372,31.232536939193466],[32.293303429207555,31.232779990424177],[32.28598363391606,31.23333741164042],[32.285489931255285,31.23288590870122],[32.28277719090286,31.23311406326313],[32.26859089578244,31.242011658977518],[32.265563854971305,31.24396888374025],[32.265237863697934,31.24411338917075]]],"type":"Polygon"}},{"type":"Feature","properties":{"name":"elzohor","stroke":"#34f80d","stroke-width":2,"stroke-opacity":1,"fill":"#76fe6c","fill-opacity":0.3},"geometry":{"coordinates":[[[32.25664392639521,31.24766275640998],[32.27737299684728,31.260202526245422],[32.279716905115976,31.266680104778104],[32.27656095087849,31.267488268941605],[32.27869782253862,31.27367581672503],[32.27730074608269,31.27417224481357],[32.27793930552258,31.276571744296533],[32.26524783841876,31.278373072527813],[32.26386434651829,31.27272244273432],[32.26320849089453,31.274699614978175],[32.254796352420044,31.27375908586528],[32.24673790493182,31.271186100082943],[32.249380903400066,31.266332516259936],[32.253690817979475,31.261653773609993],[32.25846937531,31.254827932389844],[32.25876464557456,31.254867682961418],[32.25992948660823,31.253209745556802],[32.259794698155076,31.252408884513372],[32.25794239666135,31.25027136474361],[32.25463451378158,31.249507323588332],[32.253191143334135,31.249264994823548],[32.25664392639521,31.24766275640998]]],"type":"Polygon"},"id":1},{"type":"Feature","properties":{"name":"elmanakh"},"geometry":{"coordinates":[[[32.27396067422572,31.25806053491334],[32.27603921066225,31.25593193858103],[32.28300119092623,31.251796574911836],[32.2913051929535,31.262718690173514],[32.29205696857514,31.262288313798535],[32.29593926489699,31.267393606158237],[32.29542086531495,31.2675841408129],[32.29560748916512,31.26837729256539],[32.29655616039952,31.268213345542918],[32.29674006680304,31.26899699077002],[32.294797586017324,31.269328015323225],[32.29531941008628,31.271264922554593],[32.297206384565925,31.270928176506757],[32.29733080046597,31.271455449391382],[32.29628358984712,31.27156600747888],[32.294837255012425,31.27192047457308],[32.29471954216146,31.27196661736258],[32.2955075103026,31.27310090212808],[32.29567858216569,31.273610439866758],[32.295502326308,31.273628162869016],[32.29568220258113,31.274421152926777],[32.27796144102143,31.276581110217933],[32.27736543801464,31.274182033382957],[32.27873195578093,31.273700021315605],[32.27658580365892,31.26752691404829],[32.279785792153376,31.26668797244703],[32.2778527921603,31.26122833331496],[32.27741871455612,31.260178738636498],[32.27396067422572,31.25806053491334]]],"type":"Polygon"},"id":2},{"type":"Feature","properties":{"name":"elarab"},"geometry":{"coordinates":[[[32.28296587042607,31.25166533062435],[32.28519597541782,31.250399729768944],[32.287584564566316,31.24905181704962],[32.28799963116168,31.248804689797595],[32.28820716445884,31.248589244998414],[32.288110810379834,31.249083497967064],[32.2895042482364,31.249254585628222],[32.289007416036895,31.252079421815054],[32.28910248200941,31.252259160770265],[32.288884954931035,31.252350244170927],[32.29026352825022,31.254256498070916],[32.29476309485517,31.260099497592464],[32.29494378114333,31.260212974172944],[32.29586659464539,31.26145664802209],[32.29806918099774,31.260313591361893],[32.30317564871706,31.26698915185092],[32.302712382450466,31.2670930155453],[32.303844037053636,31.270836327281074],[32.30841996087966,31.270532802909486],[32.30870941845879,31.270931899178564],[32.309195790625154,31.271142386606016],[32.30937147449413,31.273262247857303],[32.30852001822569,31.273396721581634],[32.30730870987236,31.273530653289825],[32.30268267745262,31.27382436845153],[32.3000086803674,31.274103822302493],[32.295696844422594,31.274423662691774],[32.29552376687826,31.273645743359296],[32.29569963513637,31.27363142772073],[32.29551818375839,31.273087431833332],[32.29475196259156,31.271970058634054],[32.294844084059974,31.27193188291409],[32.296283558163964,31.27157593307261],[32.29733944827112,31.27146683196385],[32.29722236763985,31.270925270476482],[32.29532251814234,31.271256077108603],[32.294788855355364,31.269334321450387],[32.29674336223559,31.269015411371427],[32.29656527650582,31.268207996349076],[32.295605162135814,31.268370141723764],[32.29541546211962,31.267589194093887],[32.295945847879636,31.267390647055706],[32.292059238642395,31.262289842952086],[32.29130246923506,31.262714627211466],[32.28296587042607,31.25166533062435]]],"type":"Polygon"},"id":3},{"type":"Feature","properties":{"name":"eldawahy"},"geometry":{"coordinates":[[[32.256655166448525,31.247652407399755],[32.25787895817686,31.246966871709148],[32.25966111855334,31.246232257189476],[32.261252333175946,31.246069008742523],[32.26427563998274,31.245796924603056],[32.265898678897855,31.245279967835913],[32.267839960737035,31.243729080556093],[32.27223483024383,31.24092205988356],[32.27958451122646,31.23640452874828],[32.28400188686493,31.233774039684775],[32.28669054928068,31.23357585289699],[32.28985864780279,31.233436073275726],[32.29193884116489,31.233727891775544],[32.29288141821877,31.233344730090224],[32.292510568230654,31.235498342832855],[32.292340595318876,31.237268760713064],[32.29227878698731,31.2383917697817],[32.29180699413428,31.241738027644743],[32.291230472719064,31.24609781742413],[32.290909946139294,31.247453551398948],[32.29063027912193,31.248792428420558],[32.29044137348899,31.24995992045622],[32.28948148331395,31.24986490103568],[32.289575896234794,31.249232184823825],[32.28816708314406,31.24905790414158],[32.28824210597824,31.248484481874613],[32.2879815746999,31.248768823817485],[32.28721106730305,31.249219030142626],[32.28284031769624,31.251647662891727],[32.28292853875547,31.251759275756783],[32.27602361782783,31.255860253620284],[32.273921818975936,31.258021653229974],[32.256655166448525,31.247652407399755]]],"type":"Polygon"},"id":4},{"type":"Feature","properties":{"name":"elshark"},"geometry":{"coordinates":[[[32.29291678495218,31.233363667147188],[32.29340517211662,31.23362459836774],[32.2937609434839,31.23353587160429],[32.29421306959634,31.233668961717697],[32.295791805040125,31.233599247872377],[32.298034337399685,31.233371262214277],[32.2980269254968,31.233548715967004],[32.299755945684694,31.233516353487147],[32.29962994332439,31.234232502988135],[32.30005983562114,31.237199961274925],[32.300411688204065,31.239328688767287],[32.30047839533509,31.239930724678914],[32.300304731141296,31.240413564291842],[32.29938686528797,31.241706919744672],[32.29821578453675,31.243449600876076],[32.29799521401347,31.244249015444396],[32.297715209438906,31.24617959098262],[32.29795443362872,31.247833429852577],[32.29817989274713,31.25013930102301],[32.29856687031389,31.25368080218371],[32.29880085101894,31.25485237310572],[32.29914625262077,31.255871534849305],[32.299580790119194,31.256547794980577],[32.30266415655845,31.260485333450646],[32.306936046942326,31.25814594856807],[32.30837331980547,31.260039713455782],[32.310194247530546,31.258978185949616],[32.313293766475056,31.263161666132163],[32.317454214585354,31.268500310561436],[32.315637835811486,31.269489668741016],[32.31902704734071,31.273610188192677],[32.31837410072188,31.273559454343925],[32.31798233275103,31.273234757066774],[32.31783870628669,31.27317493427546],[32.316052006904215,31.273190154495396],[32.31473366132704,31.273157906561877],[32.31184969298573,31.27317484768659],[32.30940972732475,31.27325740841482],[32.30922682799351,31.2711822851864],[32.308691658610854,31.27090275033609],[32.30844389500783,31.27053003591439],[32.303854210747005,31.270828310868566],[32.302740939998785,31.267117417623936],[32.30322765814719,31.267012158058563],[32.30189991069486,31.26523931402484],[32.29808233981504,31.260278799274758],[32.29585738911979,31.261429683028],[32.294971914622465,31.260201576368416],[32.294754943882225,31.260051194503703],[32.28985556596294,31.253638310130853],[32.28896280170537,31.25236640685371],[32.289165551387214,31.25227597441132],[32.28905976894413,31.25206496504144],[32.28945716307794,31.249897914249743],[32.29053141471229,31.250026488967833],[32.29103233636215,31.24732649842956],[32.2912579292049,31.246417261741144],[32.29148352204936,31.24486511019532],[32.29181635467344,31.242450057270602],[32.292149372679745,31.239859953557314],[32.29237889991174,31.23824614189556],[32.292400384944386,31.237272521811974],[32.29291678495218,31.233363667147188]]],"type":"Polygon"},"id":5},{"type":"Feature","properties":{"name":"portfuad"},"geometry":{"coordinates":[[[32.31900105459658,31.262229026554706],[32.308228003455696,31.247532278871674],[32.307737158458764,31.24421050784511],[32.30875220999525,31.243111246551692],[32.306789777024875,31.23136570891657],[32.306857447127555,31.22100759480189],[32.306162816584134,31.211223618817385],[32.30703478572647,31.194599602123816],[32.333811524878456,31.193053248696685],[32.34284663595383,31.228091534581353],[32.34329856404082,31.23408129346855],[32.34250768988886,31.23610999668469],[32.34058699551892,31.237462441292934],[32.34262067190974,31.24229244254809],[32.34035584781748,31.24228743368589],[32.330352576364106,31.247605338191974],[32.32799369516607,31.250653768850782],[32.32667711031095,31.251638625414245],[32.32585424477665,31.252717266052812],[32.32601881788287,31.25351451425672],[32.32760969124905,31.255437261636615],[32.32843255678446,31.255812427291133],[32.32848741448578,31.256375172977727],[32.32706111422692,31.25848543942162],[32.32706484498178,31.258978681593632],[32.32739026044018,31.259079836114353],[32.32780442556944,31.25938329902506],[32.32756775978183,31.2598890683754],[32.326266097945705,31.260495988017524],[32.32597026571082,31.260824734527546],[32.32618062168552,31.261840481401876],[32.32559555352964,31.261012991802573],[32.32552651264973,31.26026839103966],[32.32534901330811,31.259737335284882],[32.32386985213154,31.259585604520097],[32.3234261037787,31.259737335284882],[32.31900105459658,31.262229026554706]]],"type":"Polygon"},"id":6}]}